[{"OBJECT_NAME":"CUBESX-HSE 3 (RS42S)","OBJECT_ID":"2023-091N","EPOCH":"2026-03-09T22:57:25.321248","MEAN_MOTION":15.286147,"ECCENTRICITY":0.00127191,"INCLINATION":97.5203,"RA_OF_ASC_NODE":133.4295,"ARG_OF_PERICENTER":86.5376,"MEAN_ANOMALY":273.7318,"EPHEMERIS_TYPE":0,"CLASSIFICATION_TYPE":"U","NORAD_CAT_ID":57178,"ELEMENT_SET_NO":999,"REV_AT_EPOCH":14925,"BSTAR":0.00059055694,"MEAN_MOTION_DOT":0.00016417,"MEAN_MOTION_DDOT":0},{"OBJECT_NAME":"STARLINK-30387","OBJECT_ID":"2023-134T","EPOCH":"2026-03-09T22:00:01.999584","MEAN_MOTION":15.23386882,"ECCENTRICITY":0.00011247,"INCLINATION":42.9997,"RA_OF_ASC_NODE":181.6009,"ARG_OF_PERICENTER":281.651,"MEAN_ANOMALY":209.8929,"EPHEMERIS_TYPE":0,"CLASSIFICATION_TYPE":"U","NORAD_CAT_ID":57788,"ELEMENT_SET_NO":999,"REV_AT_EPOCH":572,"BSTAR":0.039566067,"MEAN_MOTION_DOT":0.0103327,"MEAN_MOTION_DDOT":0}]
